[{"OBJECT_NAME":"GEESAT-4 06","OBJECT_ID":"2025-170F","EPOCH":"2026-03-09T22:38:42.354528","MEAN_MOTION":14.83615146,"ECCENTRICITY":0.00188872,"INCLINATION":49.9829,"RA_OF_ASC_NODE":274.2895,"ARG_OF_PERICENTER":19.9102,"MEAN_ANOMALY":340.2569,"EPHEMERIS_TYPE":0,"CLASSIFICATION_TYPE":"U","NORAD_CAT_ID":65124,"ELEMENT_SET_NO":999,"REV_AT_EPOCH":3169,"BSTAR":0.00034907965,"MEAN_MOTION_DOT":2.689e-5,"MEAN_MOTION_DDOT":0},{"OBJECT_NAME":"CZ-6A DEB","OBJECT_ID":"2022-151ACA","EPOCH":"2026-03-09T01:25:11.387712","MEAN_MOTION":14.58028221,"ECCENTRICITY":0.00984189,"INCLINATION":98.6597,"RA_OF_ASC_NODE":109.2936,"ARG_OF_PERICENTER":334.3351,"MEAN_ANOMALY":25.2979,"EPHEMERIS_TYPE":0,"CLASSIFICATION_TYPE":"U","NORAD_CAT_ID":56258,"ELEMENT_SET_NO":999,"REV_AT_EPOCH":15972,"BSTAR":0.0035245628,"MEAN_MOTION_DOT":0.00017305,"MEAN_MOTION_DDOT":0}]
